298P/Christensen,e,7.8708,52.8052,100.5936,3.589262,0.1449427,0.38643283,189.6368,04/06.0/2024,2000,g 15.0,4.0
# From MPEC 2024-F34
299P/Catalina-PANSTARRS,e,10.4679,271.5826,323.6909,4.389617,0.1071678,0.28094765,357.3884,04/06.0/2024,2000,g 11.5,4.0
# From MPEC 2023-VM5
300P/Catalina,e,5.6756,95.6174,222.9252,2.697637,0.2224482,0.69176904,80.2798,04/06.0/2024,2000,g 16.0,4.0
# From MPC 89014
301P/LINEAR-NEAT,e,10.3318,351.0785,193.5025,5.746309,0.0715518,0.58580910,252.4112,04/06.0/2024,2000,g 13.0,4.0
# From MPEC 2023-N01
302P/Lemmon-PANSTARRS,e,6.0346,121.7151,208.6031,4.270339,0.1116890,0.22987739,322.3335,04/06.0/2024,2000,g 12.5,4.0
# From MPC 92278
303P/NEAT,e,7.0171,347.9767,357.0048,5.041669,0.0870648,0.51059342,300.3807,04/06.0/2024,2000,g 13.5,4.0
# From MPEC 2022-K19
304P/Ory,e,2.6064,58.9409,335.2600,3.150377,0.1762627,0.60099735,234.6725,04/06.0/2024,2000,g 16.5,4.0
# From MPC101100
305P/Skiff,e,11.6670,240.1476,147.3738,4.636076,0.0987366,0.69398535,337.7727,04/06.0/2024,2000,g 18.0,4.0
# From MPC 92278
306P/LINEAR,e,8.3046,341.3708,0.8920,3.124491,0.1784576,0.59276907,273.8792,04/06.0/2024,2000,g 19.0,4.0
# From MPC 92278
307P/LINEAR,e,4.4365,158.1650,222.1997,5.788165,0.0707771,0.67546188,239.6658,04/06.0/2024,2000,g 15.0,4.0
# From MPEC 2022-C56
308P/Lagerkvist-Carsenty,e,4.8533,63.0962,333.7026,6.599557,0.0581342,0.36468487,188.9051,04/06.0/2024,2000,g 13.0,2.0
# From MPEC 2024-BE0
309P/LINEAR,e,17.0215,10.1422,49.9124,4.376856,0.1076368,0.61850656,0.8614,04/06.0/2024,2000,g 15.0,4.0
# From MPEC 2024-F34
310P/Hill,e,13.1194,8.8986,31.5650,4.185190,0.1151148,0.42262362,19.0567,04/06.0/2024,2000,g 13.5,4.0
# From MPEC 2024-A43
311P/PANSTARRS,e,4.9711,279.1715,144.2355,2.188492,0.3044295,0.11574453,28.9692,04/06.0/2024,2000,g 17.0,4.0
# From MPEC 2021-BE3
312P/NEAT,e,19.7578,144.6994,207.6624,3.471113,0.1524056,0.42716721,196.4605,04/06.0/2024,2000,g 16.0,4.0
# From MPEC 2021-S45
313P/Gibbs,e,10.9808,105.9989,254.8705,3.164179,0.1751106,0.23472686,253.9720,04/06.0/2024,2000,g 15.0,4.0
# From MPC105243
314P/Montani,e,3.9904,267.6158,213.8513,7.252080,0.0504673,0.41780653,138.0266,04/06.0/2024,2000,g  9.5,4.0
# From MPEC 2023-J29
315P/LONEOS,e,17.7322,68.6962,65.8056,4.938801,0.0897991,0.52155142,241.4668,04/06.0/2024,2000,g 11.0,4.0
# From MPC 92279
316P/LONEOS-Christensen,e,9.7903,192.1581,242.8360,4.424836,0.1058908,0.15896825,339.2184,04/06.0/2024,2000,g 13.5,4.0
# From MPEC 2020-C98
317P/WISE,e,11.9676,275.4660,334.8277,2.961188,0.1934216,0.57139729,249.1493,04/06.0/2024,2000,g 17.5,4.0
# From MPC102103
318P/McNaught-Hartley,e,17.8744,35.5641,313.3264,7.510141,0.0478886,0.67427495,147.7600,04/06.0/2024,2000,g  8.5,6.0
# From MPC 97499
319P/Catalina-McNaught,e,15.0941,111.3455,203.6571,3.563617,0.1465101,0.66631932,107.9558,04/06.0/2024,2000,g 15.0,4.0
# From MPC 96281
320P/McNaught,e,4.9034,295.9415,0.7779,3.095073,0.1810079,0.68483642,212.8276,04/06.0/2024,2000,g 20.5,4.0
# From MPC105243
321P/SOHO,e,20.0776,165.0120,172.7500,2.422354,0.2614253,0.98105351,0.0000,10/26.6073/2023,2000,g 20.0,4.0
# From MPC102103
322P/SOHO,e,11.4701,351.4917,56.9257,2.508139,0.2481286,0.97998111,0.0000,08/21.0926/2023,2000,g 19.0,4.0
# From MPEC 2023-XP6
323P/SOHO,e,5.3303,324.2802,353.1294,2.583502,0.2373509,0.98462572,0.0000,03/14.3074/2025,2000,g 20.0,4.0
# From MPEC 2024-F21
323P-B/SOHO,e,5.4667,323.4584,353.9753,2.889016,0.2007147,0.98614452,0.0000,12/16.3232/2025,2000,g 26.0,4.0
# From MPEC 2024-F21
323P-C/SOHO,e,5.3436,324.1983,353.2114,2.610449,0.2336852,0.98477579,0.0000,04/07.1169/2025,2000,g 27.0,4.0
# From MPEC 2021-W31
324P/LaSagra,e,21.3994,270.5765,57.5431,3.095749,0.1809487,0.15319097,193.1729,04/06.0/2024,2000,g 13.0,4.0
# From MPEC 2022-TA0
325P/Yang-Gao,e,16.8021,257.0868,344.6560,3.543798,0.1477409,0.59100668,109.2927,04/06.0/2024,2000,g 14.0,4.0
# From MPEC 2023-XP6
326P/Hill,e,2.4713,99.7844,278.6288,4.070880,0.1199974,0.31964552,11.7226,04/06.0/2024,2000,g 13.5,4.0
# From MPEC 2024-A43
327P/VanNess,e,36.2465,173.9901,185.0371,3.562311,0.1465906,0.56292871,85.2741,04/06.0/2024,2000,g 16.0,4.0
# From MPC109148
328P/LONEOS-Tucker,e,17.6757,341.6510,30.6109,4.187991,0.1149994,0.55266449,347.0073,04/06.0/2024,2000,g 14.5,4.0
# From MPC101101
329P/LINEAR-Catalina,e,21.7138,87.6858,343.5582,5.185223,0.0834743,0.67876706,254.2026,04/06.0/2024,2000,g 13.5,4.0
# From MPEC 2023-J29
330P/Catalina,e,15.7284,293.0795,188.8192,6.618159,0.0578893,0.54984576,160.8365,04/06.0/2024,2000,g 12.0,4.0
# From MPEC 2023-KD6
331P/Gibbs,e,9.7402,216.7516,184.9909,3.004315,0.1892718,0.04149455,241.7585,04/06.0/2024,2000,g 12.0,4.0
# From MPEC 2016-K18
332P/Ikeya-Murakami,e,9.3823,3.7602,152.2904,3.086862,0.1817306,0.48943969,174.7884,04/06.0/2024,2000,g 18.0,4.0
# From MPEC 2016-K18
332P-A/Ikeya-Murakami,e,9.3827,152.3095,3.7414,3.086857,0.1817311,0.48944381,174.7879,04/06.0/2024,2000,g  9.0,4.0
# From MPEC 2016-EI8
332P-B/Ikeya-Murakami,e,9.3805,3.8028,152.3711,3.082329,0.1821317,0.48970701,359.9699,03/17.0/2016,2000,g 19.0,4.0
# From MPEC 2016-K18
332P-C/Ikeya-Murakami,e,9.3818,152.3007,3.7418,3.086823,0.1817341,0.48944936,174.8050,04/06.0/2024,2000,g 16.5,4.0
# From MPEC 2016-ED0
332P-D/Ikeya-Murakami,e,9.3761,3.7923,152.4393,3.081138,0.1822373,0.48977814,359.9486,03/17.0/2016,2000,g 19.0,4.0
# From MPEC 2016-ED0
332P-E/Ikeya-Murakami,e,9.3774,3.8228,152.2825,3.079877,0.1823493,0.48922008,359.9889,03/17.0/2016,2000,g 21.0,4.0
# From MPEC 2016-ED0
332P-F/Ikeya-Murakami,e,9.5293,3.4757,152.8203,3.163214,0.1751908,0.49918860,359.8501,03/17.0/2016,2000,g 21.0,4.0
# From MPEC 2016-ED0
332P-G/Ikeya-Murakami,e,9.2523,3.6955,154.4000,3.050519,0.1849880,0.49200362,359.9006,03/19.0/2016,2000,g 19.0,4.0
# From MPC100285
332P-H/Ikeya-Murakami,e,9.3823,152.3014,3.7415,3.087005,0.1817180,0.48948501,174.7243,04/06.0/2024,2000,g 19.0,4.0
# From MPEC 2016-ED0
332P-I/Ikeya-Murakami,e,9.3791,3.8048,152.3297,3.081767,0.1821815,0.48955490,359.9360,03/17.0/2016,2000,g 20.5,2.0
# From MPEC 2016-EI8
332P-J/Ikeya-Murakami,e,9.4296,3.6729,152.7712,3.115165,0.1792596,0.49429435,359.8613,03/17.0/2016,2000,g 20.5,2.0
# From MPEC 2024-EF7
333P/LINEAR,e,132.0220,115.7019,26.0099,4.220732,0.1136639,0.73629362,333.0277,04/06.0/2024,2000,g 15.0,4.0
# From MPEC 2023-J29
334P/NEAT,e,20.3762,90.4831,90.0400,6.830050,0.0552164,0.35105563,137.9848,04/06.0/2024,2000,g 10.5,4.0
# From MPEC 2023-M14
335P/Gibbs,e,7.2938,330.8188,162.2992,3.577807,0.1456394,0.54647641,87.8077,04/06.0/2024,2000,g 16.8,4.0
# From MPC105244
336P/McNaught,e,17.8254,298.2159,308.6433,5.037790,0.0871654,0.44396197,228.9609,04/06.0/2024,2000,g 13.5,4.0
# From MPEC 2024-A43
337P/WISE,e,15.4863,105.2226,162.0674,3.295419,0.1647548,0.49869152,105.9629,04/06.0/2024,2000,g 17.0,4.0
# From MPEC 2023-J29
338P/McNaught,e,25.3867,9.7932,4.5743,3.891764,0.1283761,0.41213195,344.7256,04/06.0/2024,2000,g 12.0,4.0
# From MPC101101
339P/Gibbs,e,5.7331,27.4764,172.6950,3.700254,0.1384703,0.63565570,30.3344,04/06.0/2024,2000,g 17.0,4.0
# From MPC133426
340P/Boattini,e,2.0784,291.6691,36.0505,4.248915,0.1125348,0.28037387,302.5897,04/06.0/2024,2000,g 14.3,4.0
# From MPEC 2023-J29
341P/Gibbs,e,3.7966,29.9636,312.3279,4.288002,0.1109996,0.41546263,317.6427,04/06.0/2024,2000,g 12.5,4.0
# From MPC101101
342P/SOHO,e,11.6929,73.3173,27.6379,3.041124,0.1858458,0.98291246,0.0000,10/19.4003/2021,2000,g  9.0,4.0
# From MPEC 2023-J29
343P/NEAT-LONEOS,e,5.5962,257.0639,137.5759,5.457469,0.0773067,0.58524584,202.5217,04/06.0/2024,2000,g 14.0,4.0
# From MPEC 2023-J29
344P/Read,e,3.4985,273.1012,140.5480,4.857844,0.0920532,0.42374460,249.1284,04/06.0/2024,2000,g 13.0,4.0
# From MPEC 2022-K19
345P/LINEAR,e,2.7280,154.5950,196.6613,4.031834,0.1217447,0.22126130,342.1120,04/06.0/2024,2000,g 12.0,4.0
# From MPEC 2022-K19
346P/Catalina,e,22.2163,102.4545,336.0110,4.470790,0.1042624,0.50380679,271.6709,04/06.0/2024,2000,g 14.0,4.0
# From MPEC 2023-XP6
347P/PANSTARRS,e,11.7615,260.9872,98.3678,3.606838,0.1438845,0.38685473,37.5767,04/06.0/2024,2000,g 15.0,4.0
# From MPEC 2022-ED3
348P/PANSTARRS,e,17.7374,312.9328,135.7101,3.151931,0.1761323,0.30734701,137.9321,04/06.0/2024,2000,g 14.0,4.0
# From MPEC 2024-EF7
349P/Lemmon,e,5.4884,331.7519,255.7940,3.578437,0.1456009,0.29855177,352.5541,04/06.0/2024,2000,g 14.0,4.0
# From MPC111775
350P/McNaught,e,7.3639,65.2934,139.9260,4.081571,0.1195262,0.09435668,275.1617,04/06.0/2024,2000,g 14.0,4.0
# From MPC105244
351P/Wiegert-PANSTARRS,e,12.7758,352.6820,283.3269,4.440573,0.1053284,0.29479456,322.6644,04/06.0/2024,2000,g 12.5,4.0
# From MPEC 2023-J29
352P/Skiff,e,21.0130,28.0090,309.4053,6.651860,0.0574499,0.61691744,142.5048,04/06.0/2024,2000,g 13.2,4.0
# From MPEC 2020-AA5
353P/McNaught,e,28.4165,121.5323,230.4859,4.170650,0.1157174,0.47001728,265.5426,04/06.0/2024,2000,g 14.5,4.0
# From MPEC 2024-EF7
354P/LINEAR,e,5.2510,320.0719,132.7862,2.289721,0.2844659,0.12448379,49.8145,04/06.0/2024,2000,g 15.5,4.0
# From MPEC 2023-CD7
355P/LINEAR-NEAT,e,11.0472,51.4342,336.3313,3.469609,0.1525047,0.50807840,0.7005,04/06.0/2024,2000,g 15.5,2.0
# From MPEC 2022-F14
356P/WISE,e,9.6401,160.8134,226.1267,4.154624,0.1163876,0.35607081,267.2423,04/06.0/2024,2000,g 14.0,4.0
# From MPC114609
357P/Hill,e,6.3146,44.5806,1.4438,4.456235,0.1047736,0.43612535,223.6808,04/06.0/2024,2000,g 15.5,4.0
# From MPEC 2024-EF7
358P/PANSTARRS,e,11.0639,85.6668,299.6209,3.149700,0.1763195,0.23977020,26.0091,04/06.0/2024,2000,g 18.0,4.0
# From MPC110086
359P/LONEOS,e,10.2640,149.7744,200.2918,4.641171,0.0985741,0.32361896,238.2688,04/06.0/2024,2000,g 13.5,4.0
# From MPC108599
360P/WISE,e,24.1084,2.2139,354.2334,3.697396,0.1386309,0.49918000,334.9449,04/06.0/2024,2000,g 19.5,6.0
# From MPEC 2023-CD7
361P/Spacewatch,e,13.9025,203.2556,219.0525,4.933716,0.0899379,0.43953516,188.9705,04/06.0/2024,2000,g 12.0,4.0
# From MPEC 2017-V13
362P/,e,15.5551,192.4950,53.5444,3.973528,0.1244342,0.27870373,346.9088,04/06.0/2024,2000,g 12.9,2.0
# From MPC114609
